{
  "type": "FeatureCollection",
  "features": [
    {
      "type": "Feature",
      "properties": {
        "id": 0
      },
      "geometry": {
        "type": "LineString",
        "coordinates": [
          [
            23.07489255435786,
            50.21112684129207,
            35000
          ],
          [
            22.975775439398184,
            50.06968692749055,
            35000
          ],
          [
            22.902720075613356,
            50.16150297595249,
            35000
          ],
          [
            23.082039161011107,
            50.352855010936196,
            35000
          ],
          [
            22.98302586692212,
            50.18319907703592,
            35000
          ],
          [
            22.902394639401102,
            50.102726986778144,
            35000
          ],
          [
            22.82126989394382,
            50.18005821048583,
            35000
          ],
          [
            23.0138678176224,
            50.03828682888397,
            35000
          ],
          [
            23.148917075783814,
            50.117361396612544,
            35000
          ],
          [
            23.222183079221484,
            49.98446201823902,
            35000
          ],
          [
            23.355384793346527,
            49.834773048669454,
            35000
          ],
          [
            23.51686750325078,
            49.94509284498793,
            35000
          ],
          [
            23.587464347511713,
            49.857686935930715,
            35000
          ],
          [
            23.398509542260385,
            49.954862913740826,
            35000
          ],
          [
            23.561003658481393,
            49.81870821363117,
            35000
          ]
        ]
      }
    },
    {
      "type": "Feature",
      "properties": {
        "id": 1
      },
      "geometry": {
        "type": "LineString",
        "coordinates": [
          [
            134.79013087643017,
            -51.31125846416477,
            35000
          ],
          [
            134.9499036659194,
            -51.36555175845778,
            35000
          ],
          [
            134.8762823020148,
            -51.547439390968805,
            35000
          ],
          [
            135.0726032487689,
            -51.36138736064124,
            35000
          ],
          [
            135.26851661785264,
            -51.30956307913971,
            35000
          ],
          [
            135.14010919463834,
            -51.44614200530337,
            35000
          ],
          [
            134.9601464315187,
            -51.586260231260745,
            35000
          ],
          [
            135.07321043813914,
            -51.51560716546174,
            35000
          ],
          [
            135.2612884395431,
            -51.63311618068992,
            35000
          ],
          [
            135.1816982231235,
            -51.778794171561955,
            35000
          ],
          [
            135.09119250915455,
            -51.95359941591208,
            35000
          ],
          [
            135.2162423208388,
            -51.88082828052507,
            35000
          ],
          [
            135.27920949905138,
            -51.71640150288817,
            35000
          ],
          [
            135.13713828559884,
            -51.79238952129156,
            35000
          ],
          [
            135.31883101417202,
            -51.977357203282,
            35000
          ]
        ]
      }
    },
    {
      "type": "Feature",
      "properties": {
        "id": 2
      },
      "geometry": {
        "type": "LineString",
        "coordinates": [
          [
            -1.3721634790828217,
            43.61711141910541,
            35000
          ],
          [
            -1.2685020261348892,
            43.750798487217615,
            35000
          ],
          [
            -1.1903211802032143,
            43.9478810650363,
            35000
          ],
          [
            -1.3212837589966724,
            43.770175250876036,
            35000
          ],
          [
            -1.1289737508897106,
            43.90690733822543,
            35000
          ],
          [
            -1.285797655841676,
            44.01531046811358,
            35000
          ],
          [
            -1.4611876628117262,
            44.12576040319613,
            35000
          ],
          [
            -1.3768841962071552,
            44.24779645020549,
            35000
          ],
          [
            -1.4978769925865618,
            44.11982243259429,
            35000
          ],
          [
            -1.427490463549589,
            44.22077440806684,
            35000
          ],
          [
            -1.6219304139210964,
            44.078565717238625,
            35000
          ],
          [
            -1.7919664241301305,
            44.19493084444493,
            35000
          ],
          [
            -1.8467277002444333,
            44.288160785658164,
            35000
          ],
          [
            -1.7533670585388712,
            44.10802750218319,
            35000
          ],
          [
            -1.642695731857851,
            44.195132542815614,
            35000
          ]
        ]
      }
    }
  ]
}